STARLINK-2294
1 28020C 21024AV  21325.13735852 -.00023656  00000-0 -15849-2 0  3256
2 28020  53.0535 112.5976 0002083  81.9052 189.8070 15.06424865    11
